[Satellite]
VERSION=1.1
NAME=GPS BIIA-14 (PRN 26)
NICKNAME=GPS BIIA-14 (PRN 26)
TLE1=1 22014U 92039A   11058.12107755 -.00000082  00000-0  10000-3 0  9147
TLE2=2 22014  56.6198 317.2430 0200476  64.2940 297.8001  2.00567814130071
